[{"OBJECT_NAME":"ONEWEB-0243","OBJECT_ID":"2021-045H","EPOCH":"2026-03-09T23:05:35.869344","MEAN_MOTION":13.15550856,"ECCENTRICITY":0.00014522,"INCLINATION":87.8938,"RA_OF_ASC_NODE":279.0335,"ARG_OF_PERICENTER":110.7488,"MEAN_ANOMALY":249.3798,"EPHEMERIS_TYPE":0,"CLASSIFICATION_TYPE":"U","NORAD_CAT_ID":48774,"ELEMENT_SET_NO":999,"REV_AT_EPOCH":23131,"BSTAR":0.00046388838,"MEAN_MOTION_DOT":1.87e-6,"MEAN_MOTION_DDOT":0},{"OBJECT_NAME":"SL-14 R\/B","OBJECT_ID":"1991-056B","EPOCH":"2026-03-09T20:26:09.161952","MEAN_MOTION":13.20280426,"ECCENTRICITY":0.00238539,"INCLINATION":82.5498,"RA_OF_ASC_NODE":198.5078,"ARG_OF_PERICENTER":321.4136,"MEAN_ANOMALY":154.284,"EPHEMERIS_TYPE":0,"CLASSIFICATION_TYPE":"U","NORAD_CAT_ID":21656,"ELEMENT_SET_NO":999,"REV_AT_EPOCH":66230,"BSTAR":7.8081907e-5,"MEAN_MOTION_DOT":4.4e-7,"MEAN_MOTION_DDOT":0}]
